[{"OBJECT_NAME":"ORBCOMM FM06","OBJECT_ID":"1997-084G","EPOCH":"2026-04-26T22:47:38.618592","MEAN_MOTION":14.47431071,"ECCENTRICITY":5.415e-5,"INCLINATION":45.0142,"RA_OF_ASC_NODE":299.347,"ARG_OF_PERICENTER":67.7391,"MEAN_ANOMALY":88.2472,"EPHEMERIS_TYPE":0,"CLASSIFICATION_TYPE":"U","NORAD_CAT_ID":25118,"ELEMENT_SET_NO":999,"REV_AT_EPOCH":48696,"BSTAR":0.00039823061,"MEAN_MOTION_DOT":1.33e-5,"MEAN_MOTION_DDOT":0},{"OBJECT_NAME":"ORBCOMM FM04","OBJECT_ID":"1998-007C","EPOCH":"2026-04-26T18:20:26.448000","MEAN_MOTION":14.3563318,"ECCENTRICITY":0.00392698,"INCLINATION":107.9614,"RA_OF_ASC_NODE":63.5988,"ARG_OF_PERICENTER":54.7479,"MEAN_ANOMALY":305.7326,"EPHEMERIS_TYPE":0,"CLASSIFICATION_TYPE":"U","NORAD_CAT_ID":25159,"ELEMENT_SET_NO":999,"REV_AT_EPOCH":46921,"BSTAR":0.00041976596,"MEAN_MOTION_DOT":1.09e-5,"MEAN_MOTION_DDOT":0},{"OBJECT_NAME":"ORBCOMM FM19","OBJECT_ID":"1998-046C","EPOCH":"2026-04-26T02:17:16.799712","MEAN_MOTION":14.39389151,"ECCENTRICITY":0.00024253,"INCLINATION":44.9929,"RA_OF_ASC_NODE":131.1511,"ARG_OF_PERICENTER":1.1166,"MEAN_ANOMALY":45.6536,"EPHEMERIS_TYPE":0,"CLASSIFICATION_TYPE":"U","NORAD_CAT_ID":25415,"ELEMENT_SET_NO":999,"REV_AT_EPOCH":44927,"BSTAR":0.00033065081,"MEAN_MOTION_DOT":8.95e-6,"MEAN_MOTION_DDOT":0},{"OBJECT_NAME":"ORBCOMM FM20","OBJECT_ID":"1998-046D","EPOCH":"2026-04-26T17:49:02.877888","MEAN_MOTION":14.37986646,"ECCENTRICITY":0.00017979,"INCLINATION":44.9926,"RA_OF_ASC_NODE":135.4359,"ARG_OF_PERICENTER":283.9634,"MEAN_ANOMALY":76.1014,"EPHEMERIS_TYPE":0,"CLASSIFICATION_TYPE":"U","NORAD_CAT_ID":25416,"ELEMENT_SET_NO":999,"REV_AT_EPOCH":44938,"BSTAR":0.000253291,"MEAN_MOTION_DOT":6.31e-6,"MEAN_MOTION_DDOT":0},{"OBJECT_NAME":"ORBCOMM FM27","OBJECT_ID":"1998-053G","EPOCH":"2026-04-26T12:55:09.321312","MEAN_MOTION":14.3904132,"ECCENTRICITY":0.00014282,"INCLINATION":45.0048,"RA_OF_ASC_NODE":220.6485,"ARG_OF_PERICENTER":232.4441,"MEAN_ANOMALY":127.6278,"EPHEMERIS_TYPE":0,"CLASSIFICATION_TYPE":"U","NORAD_CAT_ID":25481,"ELEMENT_SET_NO":999,"REV_AT_EPOCH":44279,"BSTAR":0.00034515814,"MEAN_MOTION_DOT":9.33e-6,"MEAN_MOTION_DDOT":0},{"OBJECT_NAME":"ORBCOMM FM32","OBJECT_ID":"1999-065C","EPOCH":"2026-04-26T05:19:23.203776","MEAN_MOTION":14.37053768,"ECCENTRICITY":0.00042933,"INCLINATION":45.016,"RA_OF_ASC_NODE":59.1947,"ARG_OF_PERICENTER":165.2444,"MEAN_ANOMALY":194.853,"EPHEMERIS_TYPE":0,"CLASSIFICATION_TYPE":"U","NORAD_CAT_ID":25982,"ELEMENT_SET_NO":999,"REV_AT_EPOCH":37961,"BSTAR":0.00032631472,"MEAN_MOTION_DOT":8.35e-6,"MEAN_MOTION_DDOT":0},{"OBJECT_NAME":"ORBCOMM FM109","OBJECT_ID":"2014-040A","EPOCH":"2026-04-26T20:50:48.160608","MEAN_MOTION":14.58789426,"ECCENTRICITY":0.00017497,"INCLINATION":47.0044,"RA_OF_ASC_NODE":334.1067,"ARG_OF_PERICENTER":333.4749,"MEAN_ANOMALY":26.6047,"EPHEMERIS_TYPE":0,"CLASSIFICATION_TYPE":"U","NORAD_CAT_ID":40086,"ELEMENT_SET_NO":999,"REV_AT_EPOCH":62685,"BSTAR":0.00013071547,"MEAN_MOTION_DOT":4.46e-6,"MEAN_MOTION_DDOT":0},{"OBJECT_NAME":"ORBCOMM FM114","OBJECT_ID":"2015-081A","EPOCH":"2026-04-26T14:41:40.145280","MEAN_MOTION":14.58799723,"ECCENTRICITY":0.0002524,"INCLINATION":47.0045,"RA_OF_ASC_NODE":245.8327,"ARG_OF_PERICENTER":305.7737,"MEAN_ANOMALY":54.2914,"EPHEMERIS_TYPE":0,"CLASSIFICATION_TYPE":"U","NORAD_CAT_ID":41179,"ELEMENT_SET_NO":999,"REV_AT_EPOCH":55022,"BSTAR":0.00015226,"MEAN_MOTION_DOT":5.48e-6,"MEAN_MOTION_DDOT":0},{"OBJECT_NAME":"ORBCOMM FM110","OBJECT_ID":"2015-081D","EPOCH":"2026-04-26T12:46:54.042816","MEAN_MOTION":14.58820734,"ECCENTRICITY":0.0003545,"INCLINATION":47.0018,"RA_OF_ASC_NODE":245.6651,"ARG_OF_PERICENTER":205.5046,"MEAN_ANOMALY":154.5665,"EPHEMERIS_TYPE":0,"CLASSIFICATION_TYPE":"U","NORAD_CAT_ID":41182,"ELEMENT_SET_NO":999,"REV_AT_EPOCH":55008,"BSTAR":0.0001905,"MEAN_MOTION_DOT":7.28e-6,"MEAN_MOTION_DDOT":0},{"OBJECT_NAME":"ORBCOMM FM118","OBJECT_ID":"2015-081E","EPOCH":"2026-04-26T18:32:43.915200","MEAN_MOTION":14.58818929,"ECCENTRICITY":0.00031612,"INCLINATION":47.0038,"RA_OF_ASC_NODE":244.8552,"ARG_OF_PERICENTER":172.3845,"MEAN_ANOMALY":187.709,"EPHEMERIS_TYPE":0,"CLASSIFICATION_TYPE":"U","NORAD_CAT_ID":41183,"ELEMENT_SET_NO":999,"REV_AT_EPOCH":55022,"BSTAR":0.00019474935,"MEAN_MOTION_DOT":7.48e-6,"MEAN_MOTION_DDOT":0},{"OBJECT_NAME":"ORBCOMM FM112","OBJECT_ID":"2015-081F","EPOCH":"2026-04-26T12:02:26.545632","MEAN_MOTION":14.58814463,"ECCENTRICITY":0.00026888,"INCLINATION":46.9975,"RA_OF_ASC_NODE":154.6148,"ARG_OF_PERICENTER":303.8667,"MEAN_ANOMALY":56.1963,"EPHEMERIS_TYPE":0,"CLASSIFICATION_TYPE":"U","NORAD_CAT_ID":41184,"ELEMENT_SET_NO":999,"REV_AT_EPOCH":55140,"BSTAR":0.00014730821,"MEAN_MOTION_DOT":5.24e-6,"MEAN_MOTION_DDOT":0},{"OBJECT_NAME":"ORBCOMM FM113","OBJECT_ID":"2015-081G","EPOCH":"2026-04-26T19:43:07.275936","MEAN_MOTION":14.58800295,"ECCENTRICITY":0.00021928,"INCLINATION":46.9994,"RA_OF_ASC_NODE":153.4802,"ARG_OF_PERICENTER":307.5991,"MEAN_ANOMALY":52.4696,"EPHEMERIS_TYPE":0,"CLASSIFICATION_TYPE":"U","NORAD_CAT_ID":41185,"ELEMENT_SET_NO":999,"REV_AT_EPOCH":55143,"BSTAR":0.00011227863,"MEAN_MOTION_DOT":3.59e-6,"MEAN_MOTION_DDOT":0},{"OBJECT_NAME":"ORBCOMM FM108","OBJECT_ID":"2015-081J","EPOCH":"2026-04-26T22:06:26.280864","MEAN_MOTION":14.58791465,"ECCENTRICITY":0.00032778,"INCLINATION":47.0053,"RA_OF_ASC_NODE":64.5644,"ARG_OF_PERICENTER":314.8362,"MEAN_ANOMALY":45.2257,"EPHEMERIS_TYPE":0,"CLASSIFICATION_TYPE":"U","NORAD_CAT_ID":41187,"ELEMENT_SET_NO":999,"REV_AT_EPOCH":55259,"BSTAR":0.00016854617,"MEAN_MOTION_DOT":6.24e-6,"MEAN_MOTION_DDOT":0},{"OBJECT_NAME":"ORBCOMM FM117","OBJECT_ID":"2015-081K","EPOCH":"2026-04-26T19:38:01.812192","MEAN_MOTION":14.58789482,"ECCENTRICITY":0.00036968,"INCLINATION":47.002,"RA_OF_ASC_NODE":63.7015,"ARG_OF_PERICENTER":320.6516,"MEAN_ANOMALY":39.4101,"EPHEMERIS_TYPE":0,"CLASSIFICATION_TYPE":"U","NORAD_CAT_ID":41188,"ELEMENT_SET_NO":999,"REV_AT_EPOCH":55262,"BSTAR":0.00013643817,"MEAN_MOTION_DOT":4.73e-6,"MEAN_MOTION_DDOT":0},{"OBJECT_NAME":"ORBCOMM FM116","OBJECT_ID":"2015-081L","EPOCH":"2026-04-26T12:35:59.129088","MEAN_MOTION":14.58811344,"ECCENTRICITY":0.00021256,"INCLINATION":47.001,"RA_OF_ASC_NODE":154.8787,"ARG_OF_PERICENTER":220.4641,"MEAN_ANOMALY":139.6087,"EPHEMERIS_TYPE":0,"CLASSIFICATION_TYPE":"U","NORAD_CAT_ID":41189,"ELEMENT_SET_NO":999,"REV_AT_EPOCH":55139,"BSTAR":0.0001477857,"MEAN_MOTION_DOT":5.27e-6,"MEAN_MOTION_DDOT":0}]
